STARLINK-36762
1 67868U 26034U   26090.83335647 -.01852784  00000+0 -46921-1 0  9995
2 67868  53.1596 101.5755 0001131  90.9967 255.7188 15.42429684  6014
